*******************************************************************************
 Revised: July 31, 2013                  Earth                              399
 
 GEOPHYSICAL PROPERTIES (revised Aug 15, 2018):
  Vol. Mean Radius (km)    = 6371.01+-0.02   Mass x10^24 (kg)= 5.97219+-0.0006
  Equ. radius, km          = 6378.137        Mass layers:
  Polar axis, km           = 6356.752          Atmos         = 5.1   x 10^18 kg
  Flattening               = 1/298.257223563   oceans        = 1.4   x 10^21 kg
  Density, g/cm^3          = 5.51              crust         = 2.6   x 10^22 kg
  J2 (IERS 2010)           = 0.00108262545     mantle        = 4.043 x 10^24 kg
  g_p, m/s^2  (polar)      = 9.8321863685      outer core    = 1.835 x 10^24 kg
  g_e, m/s^2  (equatorial) = 9.7803267715      inner core    = 9.675 x 10^22 kg
  g_o, m/s^2               = 9.82022         Fluid core rad  = 3480 km
  GM, km^3/s^2             = 398600.435436   Inner core rad  = 1215 km
  GM 1-sigma, km^3/s^2     =      0.0014     Escape velocity = 11.186 km/s
  Rot. Rate (rad/s)        = 0.00007292115   Surface area:
  Mean sidereal day, hr    = 23.9344695944     land          = 1.48 x 10^8 km
  Mean solar day 2000.0, s = 86400.002         sea           = 3.62 x 10^8 km
  Mean solar day 1820.0, s = 86400.0         Love no., k2    = 0.299
  Moment of inertia        = 0.3308          Atm. pressure   = 1.0 bar
  Mean temperature, K      = 270             Volume, km^3    = 1.08321 x 10^12
  Mean effect. IR temp, K  = 255             Magnetic moment = 0.61 gauss Rp^3
  Geometric albedo         = 0.367           Vis. mag. V(1,0)= -3.86
  Solar Constant (W/m^2)   = 1367.6 (mean), 1414 (perihelion), 1322 (aphelion)
 HELIOCENTRIC ORBIT CHARACTERISTICS:
  Obliquity to orbit, deg  = 23.4392911  Sidereal orb period  = 1.0000174 y
  Orbital speed, km/s      = 29.79       Sidereal orb period  = 365.25636 d
  Mean daily motion, deg/d = 0.9856474   Hill's sphere radius = 234.9       
*******************************************************************************
 
 
*******************************************************************************
Ephemeris / WWW_USER Fri Oct 23 10:54:07 2020 Pasadena, USA      / Horizons
*******************************************************************************
Target body name: Earth (399)                     {source: DE431mx}
Center body name: Sun (10)                        {source: DE431mx}
Center-site name: BODY CENTER
*******************************************************************************
Start time      : A.D. 2035-Jul-01 00:00:00.0000 TDB
Stop  time      : A.D. 2035-Nov-01 00:00:00.0000 TDB
Step-size       : 1440 minutes
*******************************************************************************
Center geodetic : 0.00000000,0.00000000,0.0000000 {E-lon(deg),Lat(deg),Alt(km)}
Center cylindric: 0.00000000,0.00000000,0.0000000 {E-lon(deg),Dxy(km),Dz(km)}
Center radii    : 696000.0 x 696000.0 x 696000.0 k{Equator, meridian, pole}    
Output units    : AU-D
Output type     : GEOMETRIC cartesian states
Output format   : 2 (position and velocity)
Reference frame : Ecliptic of J2000.0
*******************************************************************************
            JDTDB,            Calendar Date (TDB),                      X,                      Y,                      Z,                     VX,                     VY,                     VZ,
**************************************************************************************************************************************************************************************************
$$SOE
2464605.500000000, A.D. 2035-Oct-05 00:00:00.0000,  9.816254064351959E-01,  1.925739845588471E-01, -2.584701389361412E-05, -3.597150181320174E-03,  1.682198020627875E-02, -1.528989329541298E-06,
2464606.500000000, A.D. 2035-Oct-06 00:00:00.0000,  9.778828789267541E-01,  2.093660241766478E-01, -2.730302117251652E-05, -3.887713223335811E-03,  1.676123779911916E-02, -1.382859819774673E-06,
2464607.500000000, A.D. 2035-Oct-07 00:00:00.0000,  9.738503800506616E-01,  2.260947498369027E-01, -2.861337360084566E-05, -4.177076444786750E-03,  1.669536434780480E-02, -1.238624387572171E-06,
2464608.500000000, A.D. 2035-Oct-08 00:00:00.0000,  9.695291573988850E-01,  2.427550662323129E-01, -2.978267483628271E-05, -4.465145831436073E-03,  1.662443089560147E-02, -1.101582171226030E-06,
2464609.500000000, A.D. 2035-Oct-09 00:00:00.0000,  9.649205485068458E-01,  2.593419478964771E-01, -3.082049479094478E-05, -4.751835040695834E-03,  1.654850621508874E-02, -9.763956632659240E-07,
2464610.500000000, A.D. 2035-Oct-10 00:00:00.0000,  9.600259743490532E-01,  2.758504375209927E-01, -3.174082607320209E-05, -5.037063319057293E-03,  1.646765814305011E-02, -8.672800546713036E-07,
2464611.500000000, A.D. 2035-Oct-11 00:00:00.0000,  9.548469341266833E-01,  2.922756459553167E-01, -3.256172718398142E-05, -5.320755027428076E-03,  1.638195548202417E-02, -7.781757153780510E-07,
2464612.500000000, A.D. 2035-Oct-12 00:00:00.0000,  9.493849996957260E-01,  3.086127540723176E-01, -3.330510234429417E-05, -5.602840826260031E-03,  1.629146970309931E-02, -7.128389107266438E-07,
2464613.500000000, A.D. 2035-Oct-13 00:00:00.0000,  9.436418080367016E-01,  3.248570159148611E-01, -3.399650711649627E-05, -5.883260360413232E-03,  1.619627567227906E-02, -6.747937554975219E-07,
2464614.500000000, A.D. 2035-Oct-14 00:00:00.0000,  9.376190504622266E-01,  3.410037617433269E-01, -3.466481618175656E-05, -6.161965990407843E-03,  1.609645059131184E-02, -6.670980288829091E-07,
2464615.500000000, A.D. 2035-Oct-15 00:00:00.0000,  9.313184579255750E-01,  3.570483988163500E-01, -3.534155274408074E-05, -6.438926661462504E-03,  1.599207042135698E-02, -6.919003690904160E-07,
2464616.500000000, A.D. 2035-Oct-16 00:00:00.0000,  9.247417829820092E-01,  3.729864071698666E-01, -3.605968125348235E-05, -6.714130439837179E-03,  1.588320345995873E-02, -7.498217558631845E-07,
2464617.500000000, A.D. 2035-Oct-17 00:00:00.0000,  9.178907806492761E-01,  3.888133277383750E-01, -3.685174016960564E-05, -6.987583865269932E-03,  1.576990164637957E-02, -8.392827866281456E-07,
2464618.500000000, A.D. 2035-Oct-18 00:00:00.0000,  9.107671921968443E-01,  4.045247413706151E-01, -3.774736144015612E-05, -7.259306558605258E-03,  1.565219146759487E-02, -9.559913860273650E-07,
2464619.500000000, A.D. 2035-Oct-19 00:00:00.0000,  9.033727368779108E-01,  4.201162397598424E-01, -3.877046282767416E-05, -7.529320853387143E-03,  1.553006741637399E-02, -1.092838998186657E-06,
2464620.500000000, A.D. 2035-Oct-20 00:00:00.0000,  8.957091158349805E-01,  4.355833923599417E-01, -3.993661424400725E-05, -7.797638301132363E-03,  1.540349089557185E-02, -1.240364402392375E-06,
2464621.500000000, A.D. 2035-Oct-21 00:00:00.0000,  8.877780296171184E-01,  4.509217155485263E-01, -4.125114323266597E-05, -8.064246604061558E-03,  1.527239580767382E-02, -1.387741378729855E-06,
2464622.500000000, A.D. 2035-Oct-22 00:00:00.0000,  8.795812069851617E-01,  4.661266502799056E-01, -4.270839078119330E-05, -8.329100613489010E-03,  1.513669952729462E-02, -1.524037327019519E-06,
2464623.500000000, A.D. 2035-Oct-23 00:00:00.0000,  8.711204397849399E-01,  4.811935521124467E-01, -4.429222025348902E-05, -8.592119313000999E-03,  1.499631607908719E-02, -1.639407622802449E-06,
2464624.500000000, A.D. 2035-Oct-24 00:00:00.0000,  8.623976179435923E-01,  4.961176940975124E-01, -4.597757747130620E-05, -8.853188345836000E-03,  1.485116821442179E-02, -1.725975380374574E-06,
2464625.500000000, A.D. 2035-Oct-25 00:00:00.0000,  8.534147599645009E-01,  5.108942803014643E-01, -4.773273301762133E-05, -9.112166108119114E-03,  1.470119641937922E-02, -1.778316794083820E-06,
2464626.500000000, A.D. 2035-Oct-26 00:00:00.0000,  8.441740364560304E-01,  5.255184666093646E-01, -4.952183370293468E-05, -9.368891283188324E-03,  1.454636452457617E-02, -1.793610802049283E-06,
2464627.500000000, A.D. 2035-Oct-27 00:00:00.0000,  8.346777860097288E-01,  5.399853856912401E-01, -5.130748058022004E-05, -9.623190462672546E-03,  1.438666255953187E-02, -1.771559651255452E-06,
2464628.500000000, A.D. 2035-Oct-28 00:00:00.0000,  8.249285236460729E-01,  5.542901737712062E-01, -5.305314883832449E-05, -9.874885360065977E-03,  1.422210760534066E-02, -1.714161610581469E-06,
2464629.500000000, A.D. 2035-Oct-29 00:00:00.0000,  8.149289422842179E-01,  5.684279974272203E-01, -5.472532264068837E-05, -1.012379954304104E-02,  1.405274303188350E-02, -1.625370889343685E-06,
2464630.500000000, A.D. 2035-Oct-30 00:00:00.0000,  8.046819077685763E-01,  5.823940788454675E-01, -5.629523799215659E-05, -1.036976454070543E-02,  1.387863616434541E-02, -1.510655445790253E-06,
2464631.500000000, A.D. 2035-Oct-31 00:00:00.0000,  7.941904482684888E-01,  5.961837179594379E-01, -5.774013999625627E-05, -1.061262489754469E-02,  1.369987440954600E-02, -1.376473812114448E-06,
2464632.500000000, A.D. 2035-Nov-01 00:00:00.0000,  7.834577393949105E-01,  6.097923100678672E-01, -5.904399667841567E-05, -1.085224159190847E-02,  1.351656017759720E-02, -1.229722594317155E-06,
